{"type": "FeatureCollection", "features": [{"type": "Feature", "properties": {"norad_id": 28054, "name": "DMSP 5D-3 F16 (USA 172)", "group": "weather", "lat": -44.295052838623945, "lon": 18.38267563213742, "alt_km": 846.3991954813519, "timestamp": "2025-12-17T23:38:06.506994+00:00", "meta": {"OBJECT_NAME": "DMSP 5D-3 F16 (USA 172)", "OBJECT_ID": "2003-048A", "EPOCH": "2025-12-17T15:52:11.898048", "MEAN_MOTION": 14.14426076, "ECCENTRICITY": 0.00063476, "INCLINATION": 99.0042, "RA_OF_ASC_NODE": 9.1569, "ARG_OF_PERICENTER": 305.2658, "MEAN_ANOMALY": 163.2385, "EPHEMERIS_TYPE": 0, "CLASSIFICATION_TYPE": "U", "NORAD_CAT_ID": 28054, "ELEMENT_SET_NO": 999, "REV_AT_EPOCH": 14382, "BSTAR": 8.0902423e-05, "MEAN_MOTION_DOT": 1.09e-06, "MEAN_MOTION_DDOT": 0}, "tle": {"line1": "1 28054U 03048A   25351.66124882  .00000109  00000+0  80902-4 0  9999", "line2": "2 28054  99.0042   9.1569 0006347 305.2658 163.2385 14.14426076143825"}}, "geometry": {"type": "Point", "coordinates": [18.38267563213742, -44.295052838623945]}}, {"type": "Feature", "properties": {"norad_id": 28912, "name": "METEOSAT-9 (MSG-2)", "group": "weather", "lat": 8.48865937697792, "lon": 126.91567423939318, "alt_km": 35790.017554876475, "timestamp": "2025-12-17T23:38:06.507039+00:00", "meta": {"OBJECT_NAME": "METEOSAT-9 (MSG-2)", "OBJECT_ID": "2005-049B", "EPOCH": "2025-12-16T20:25:21.138240", "MEAN_MOTION": 1.00278778, "ECCENTRICITY": 0.00033903, "INCLINATION": 8.9483, "RA_OF_ASC_NODE": 55.9385, "ARG_OF_PERICENTER": 190.7739, "MEAN_ANOMALY": 191.1196, "EPHEMERIS_TYPE": 0, "CLASSIFICATION_TYPE": "U", "NORAD_CAT_ID": 28912, "ELEMENT_SET_NO": 999, "REV_AT_EPOCH": 517, "BSTAR": 0, "MEAN_MOTION_DOT": 1.4e-06, "MEAN_MOTION_DDOT": 0}, "tle": {"line1": "1 28912U 05049B   25350.85093910  .00000140  00000+0  00000+0 0  9993", "line2": "2 28912   8.9483  55.9385 0003390 190.7739 191.1196  1.00278778  5173"}}, "geometry": {"type": "Point", "coordinates": [126.91567423939318, 8.48865937697792]}}, {"type": "Feature", "properties": {"norad_id": 29522, "name": "DMSP 5D-3 F17 (USA 191)", "group": "weather", "lat": -79.82924078563852, "lon": 118.23970173694367, "alt_km": 845.9985178197921, "timestamp": "2025-12-17T23:38:06.507056+00:00", "meta": {"OBJECT_NAME": "DMSP 5D-3 F17 (USA 191)", "OBJECT_ID": "2006-050A", "EPOCH": "2025-12-17T13:54:06.632352", "MEAN_MOTION": 14.14921695, "ECCENTRICITY": 0.00095924, "INCLINATION": 98.7391, "RA_OF_ASC_NODE": 356.8676, "ARG_OF_PERICENTER": 210.1798, "MEAN_ANOMALY": 149.8824, "EPHEMERIS_TYPE": 0, "CLASSIFICATION_TYPE": "U", "NORAD_CAT_ID": 29522, "ELEMENT_SET_NO": 999, "REV_AT_EPOCH": 98673, "BSTAR": 9.8078561e-05, "MEAN_MOTION_DOT": 1.46e-06, "MEAN_MOTION_DDOT": 0}, "tle": {"line1": "1 29522U 06050A   25351.57924343  .00000146  00000+0  98079-4 0  9991", "line2": "2 29522  98.7391 356.8676 0009592 210.1798 149.8824 14.14921695986734"}}, "geometry": {"type": "Point", "coordinates": [118.23970173694367, -79.82924078563852]}}, {"type": "Feature", "properties": {"norad_id": 32958, "name": "FENGYUN 3A", "group": "weather", "lat": 63.94450280084209, "lon": -86.78340012635918, "alt_km": 824.4132696510833, "timestamp": "2025-12-17T23:38:06.507070+00:00", "meta": {"OBJECT_NAME": "FENGYUN 3A", "OBJECT_ID": "2008-026A", "EPOCH": "2025-12-17T09:47:42.134784", "MEAN_MOTION": 14.19516118, "ECCENTRICITY": 0.00077413, "INCLINATION": 98.6701, "RA_OF_ASC_NODE": 290.8366, "ARG_OF_PERICENTER": 295.5616, "MEAN_ANOMALY": 64.476, "EPHEMERIS_TYPE": 0, "CLASSIFICATION_TYPE": "U", "NORAD_CAT_ID": 32958, "ELEMENT_SET_NO": 999, "REV_AT_EPOCH": 90961, "BSTAR": 5.6035575e-05, "MEAN_MOTION_DOT": 7.5e-07, "MEAN_MOTION_DDOT": 0}, "tle": {"line1": "1 32958U 08026A   25351.40812656  .00000075  00000+0  56036-4 0  9996", "line2": "2 32958  98.6701 290.8366 0007741 295.5616  64.4760 14.19516118909616"}}, "geometry": {"type": "Point", "coordinates": [-86.78340012635918, 63.94450280084209]}}, {"type": "Feature", "properties": {"norad_id": 35491, "name": "GOES 14", "group": "weather", "lat": -1.091273800508784, "lon": -31.695157746486245, "alt_km": 35834.53836919644, "timestamp": "2025-12-17T23:38:06.507085+00:00", "meta": {"OBJECT_NAME": "GOES 14", "OBJECT_ID": "2009-033A", "EPOCH": "2025-12-17T12:06:06.534720", "MEAN_MOTION": 1.00096698, "ECCENTRICITY": 5.34e-05, "INCLINATION": 1.2148, "RA_OF_ASC_NODE": 85.3519, "ARG_OF_PERICENTER": 174.4366, "MEAN_ANOMALY": 255.3546, "EPHEMERIS_TYPE": 0, "CLASSIFICATION_TYPE": "U", "NORAD_CAT_ID": 35491, "ELEMENT_SET_NO": 999, "REV_AT_EPOCH": 477, "BSTAR": 0, "MEAN_MOTION_DOT": 1e-07, "MEAN_MOTION_DDOT": 0}, "tle": {"line1": "1 35491U 09033A   25351.50424230  .00000010  00000+0  00000+0 0  9992", "line2": "2 35491   1.2148  85.3519 0000534 174.4366 255.3546  1.00096698  4771"}}, "geometry": {"type": "Point", "coordinates": [-31.695157746486245, -1.091273800508784]}}, {"type": "Feature", "properties": {"norad_id": 35951, "name": "DMSP 5D-3 F18 (USA 210)", "group": "weather", "lat": 49.64877200909815, "lon": 158.9676737105404, "alt_km": 837.0904885407863, "timestamp": "2025-12-17T23:38:06.507097+00:00", "meta": {"OBJECT_NAME": "DMSP 5D-3 F18 (USA 210)", "OBJECT_ID": "2009-057A", "EPOCH": "2025-12-17T12:50:32.902656", "MEAN_MOTION": 14.14772409, "ECCENTRICITY": 0.00119577, "INCLINATION": 98.8838, "RA_OF_ASC_NODE": 327.912, "ARG_OF_PERICENTER": 50.179, "MEAN_ANOMALY": 310.0434, "EPHEMERIS_TYPE": 0, "CLASSIFICATION_TYPE": "U", "NORAD_CAT_ID": 35951, "ELEMENT_SET_NO": 999, "REV_AT_EPOCH": 83390, "BSTAR": 0.00015606447, "MEAN_MOTION_DOT": 2.56e-06, "MEAN_MOTION_DDOT": 0}, "tle": {"line1": "1 35951U 09057A   25351.53510304  .00000256  00000+0  15606-3 0  9994", "line2": "2 35951  98.8838 327.9120 0011957  50.1790 310.0434 14.14772409833905"}}, "geometry": {"type": "Point", "coordinates": [158.9676737105404, 49.64877200909815]}}, {"type": "Feature", "properties": {"norad_id": 36411, "name": "EWS-G2 (GOES 15)", "group": "weather", "lat": 0.7002512634010478, "lon": 142.68802032438785, "alt_km": 35797.920915842304, "timestamp": "2025-12-17T23:38:06.507111+00:00", "meta": {"OBJECT_NAME": "EWS-G2 (GOES 15)", "OBJECT_ID": "2010-008A", "EPOCH": "2025-12-17T15:07:16.805568", "MEAN_MOTION": 1.00270754, "ECCENTRICITY": 0.00054896, "INCLINATION": 0.8255, "RA_OF_ASC_NODE": 86.0725, "ARG_OF_PERICENTER": 176.7321, "MEAN_ANOMALY": 111.8959, "EPHEMERIS_TYPE": 0, "CLASSIFICATION_TYPE": "U", "NORAD_CAT_ID": 36411, "ELEMENT_SET_NO": 999, "REV_AT_EPOCH": 5781, "BSTAR": 0, "MEAN_MOTION_DOT": 6.2e-07, "MEAN_MOTION_DDOT": 0}, "tle": {"line1": "1 36411U 10008A   25351.63005562  .00000062  00000+0  00000+0 0  9993", "line2": "2 36411   0.8255  86.0725 0005489 176.7321 111.8959  1.00270754 57819"}}, "geometry": {"type": "Point", "coordinates": [142.68802032438785, 0.7002512634010478]}}, {"type": "Feature", "properties": {"norad_id": 36744, "name": "COMS 1", "group": "weather", "lat": 3.2383170715722307, "lon": -150.38105238261514, "alt_km": 35784.998576238446, "timestamp": "2025-12-17T23:38:06.507138+00:00", "meta": {"OBJECT_NAME": "COMS 1", "OBJECT_ID": "2010-032A", "EPOCH": "2025-12-17T13:56:11.537376", "MEAN_MOTION": 1.00271242, "ECCENTRICITY": 7.676e-05, "INCLINATION": 4.352, "RA_OF_ASC_NODE": 77.9436, "ARG_OF_PERICENTER": 206.0986, "MEAN_ANOMALY": 139.6306, "EPHEMERIS_TYPE": 0, "CLASSIFICATION_TYPE": "U", "NORAD_CAT_ID": 36744, "ELEMENT_SET_NO": 999, "REV_AT_EPOCH": 4926, "BSTAR": 0, "MEAN_MOTION_DOT": -3.23e-06, "MEAN_MOTION_DDOT": 0}, "tle": {"line1": "1 36744U 10032A   25351.58068909 -.00000323  00000+0  00000+0 0  9998", "line2": "2 36744   4.3520  77.9436 0000767 206.0986 139.6306  1.00271242 49265"}}, "geometry": {"type": "Point", "coordinates": [-150.38105238261514, 3.2383170715722307]}}, {"type": "Feature", "properties": {"norad_id": 37214, "name": "FENGYUN 3B", "group": "weather", "lat": 79.93464180756744, "lon": -84.88586441806814, "alt_km": 841.3960848432416, "timestamp": "2025-12-17T23:38:06.507152+00:00", "meta": {"OBJECT_NAME": "FENGYUN 3B", "OBJECT_ID": "2010-059A", "EPOCH": "2025-12-17T15:27:28.696896", "MEAN_MOTION": 14.14791426, "ECCENTRICITY": 0.00218313, "INCLINATION": 98.9907, "RA_OF_ASC_NODE": 31.6559, "ARG_OF_PERICENTER": 343.8098, "MEAN_ANOMALY": 176.0985, "EPHEMERIS_TYPE": 0, "CLASSIFICATION_TYPE": "U", "NORAD_CAT_ID": 37214, "ELEMENT_SET_NO": 999, "REV_AT_EPOCH": 78175, "BSTAR": 0.00018895556, "MEAN_MOTION_DOT": 3.2e-06, "MEAN_MOTION_DDOT": 0}, "tle": {"line1": "1 37214U 10059A   25351.64408214  .00000320  00000+0  18896-3 0  9996", "line2": "2 37214  98.9907  31.6559 0021831 343.8098 176.0985 14.14791426781753"}}, "geometry": {"type": "Point", "coordinates": [-84.88586441806814, 79.93464180756744]}}, {"type": "Feature", "properties": {"norad_id": 37849, "name": "SUOMI NPP", "group": "weather", "lat": 23.657456054903204, "lon": -74.6020974443291, "alt_km": 826.3074901795408, "timestamp": "2025-12-17T23:38:06.507164+00:00", "meta": {"OBJECT_NAME": "SUOMI NPP", "OBJECT_ID": "2011-061A", "EPOCH": "2025-12-17T15:03:51.441408", "MEAN_MOTION": 14.19515602, "ECCENTRICITY": 0.00023812, "INCLINATION": 98.7779, "RA_OF_ASC_NODE": 288.9253, "ARG_OF_PERICENTER": 111.6833, "MEAN_ANOMALY": 248.4597, "EPHEMERIS_TYPE": 0, "CLASSIFICATION_TYPE": "U", "NORAD_CAT_ID": 37849, "ELEMENT_SET_NO": 999, "REV_AT_EPOCH": 73268, "BSTAR": 5.3617906e-05, "MEAN_MOTION_DOT": 6.9e-07, "MEAN_MOTION_DDOT": 0}, "tle": {"line1": "1 37849U 11061A   25351.62767872  .00000069  00000+0  53618-4 0  9992", "line2": "2 37849  98.7779 288.9253 0002381 111.6833 248.4597 14.19515602732683"}}, "geometry": {"type": "Point", "coordinates": [-74.6020974443291, 23.657456054903204]}}]}